NORAD_CAT_ID,OBJECT_NAME,OBJECT_TYPE,EPOCH,MEAN_MOTION,ECCENTRICITY,INCLINATION,RA_OF_ASC_NODE,ARG_OF_PERICENTER,MEAN_ANOMALY,BSTAR,MEAN_MOTION_DOT,MEAN_MOTION_DDOT,TLE_LINE0,TLE_LINE1,TLE_LINE2,SEMIMAJOR_AXIS,PERIOD,APOGEE,PERIGEE,DECAYED
53909.0,STARLINK-4796,PAYLOAD,2024-05-23 20:33:33,15.08843765,0.0001433,53.2183,14.0366,99.5047,260.6107,0.00013168,1.809e-05,0.0,0 STARLINK-4796,1 53909U 22119Z   24144.85663285  .00001809  00000-0  13168-3 0  9999,2 53909  53.2183  14.0366 0001433  99.5047 260.6107 15.08843765 92960,6917.869,95.437,540.725,538.743,0.0
53909.0,STARLINK-4796,PAYLOAD,2024-05-24 01:19:42,15.08846382,0.000151,53.2187,13.1445,107.5099,252.6058,0.00012977,1.778e-05,0.0,0 STARLINK-4796,1 53909U 22119Z   24145.05535123  .00001778  00000-0  12977-3 0  9993,2 53909  53.2187  13.1445 0001510 107.5099 252.6058 15.08846382 92992,6917.861,95.437,540.77,538.681,0.0
53909.0,STARLINK-4796,PAYLOAD,2024-05-24 20:24:20,15.08838026,0.000141,53.2179,9.5761,101.9162,258.1989,6.5798e-05,7.59e-06,0.0,0 STARLINK-4796,1 53909U 22119Z   24145.85023651  .00000759  00000-0  65798-4 0  9997,2 53909  53.2179   9.5761 0001410 101.9162 258.1989 15.08838026 92698,6917.886,95.438,540.727,538.776,0.0
53909.0,STARLINK-4796,PAYLOAD,2024-05-25 07:32:02,15.08843721,0.0001077,53.2175,7.4998,90.0535,270.058,8.928e-05,1.134e-05,0.0,0 STARLINK-4796,1 53909U 22119Z   24146.31391435  .00001134  00000-0  89280-4 0  9997,2 53909  53.2175   7.4998 0001077  90.0535 270.0580 15.08843721 93187,6917.869,95.437,540.479,538.989,0.0
53909.0,STARLINK-4796,PAYLOAD,2024-05-25 20:15:06,15.08859614,0.0001093,53.2174,5.1197,86.898,273.2138,0.00027295,4.061e-05,0.0,0 STARLINK-4796,1 53909U 22119Z   24146.84382599  .00004061  00000-0  27295-3 0  9995,2 53909  53.2174   5.1197 0001093  86.8980 273.2138 15.08859614 92841,6917.82,95.436,540.442,538.929,0.0
53909.0,STARLINK-4796,PAYLOAD,2024-05-25 23:25:52,15.08862676,0.0001056,53.2174,4.5255,82.9856,277.1256,0.00030679,4.601e-05,0.0,0 STARLINK-4796,1 53909U 22119Z   24146.97630338  .00004601  00000-0  30679-3 0  9996,2 53909  53.2174   4.5255 0001056  82.9856 277.1256 15.08862676 93282,6917.811,95.436,540.407,538.946,0.0
53909.0,STARLINK-4796,PAYLOAD,2024-05-26 20:05:54,15.08836908,0.0001381,53.218,0.6593,86.5519,273.5631,3.4631e-05,2.63e-06,0.0,0 STARLINK-4796,1 53909U 22119Z   24147.83743816  .00000263  00000-0  34631-4 0  9991,2 53909  53.2180   0.6593 0001381  86.5519 273.5631 15.08836908 92991,6917.89,95.438,540.71,538.799,0.0
53909.0,STARLINK-4796,PAYLOAD,2024-05-26 21:41:17,15.0883731,0.0001303,53.2179,0.3722,86.7656,273.3486,4.7376e-05,4.66e-06,0.0,0 STARLINK-4796,1 53909U 22119Z   24147.90367838  .00000466  00000-0  47376-4 0  9990,2 53909  53.2179   0.3722 0001303  86.7656 273.3486 15.08837310 93421,6917.889,95.438,540.655,538.852,0.0
53909.0,STARLINK-4796,PAYLOAD,2024-05-27 07:13:37,15.08820382,0.0001376,53.2177,358.581,139.1389,220.9707,0.00050396,7.737e-05,0.0,0 STARLINK-4796,1 53909U 22119Z   24148.30112691  .00007737  00000-0  50396-3 0  9993,2 53909  53.2177 358.5810 0001376 139.1389 220.9707 15.08820382 93066,6917.94,95.439,540.757,538.853,0.0
53909.0,STARLINK-4796,PAYLOAD,2024-05-27 19:56:41,15.08841425,0.0001445,53.2186,356.1984,88.9658,271.15,-8.1727e-05,-1.588e-05,0.0,0 STARLINK-4796,1 53909U 22119Z   24148.83103734 -.00001588  00000-0 -81727-4 0  9992,2 53909  53.2186 356.1984 0001445  88.9658 271.1500 15.08841425 93148,6917.876,95.437,540.741,538.741,0.0
53909.0,STARLINK-4796,PAYLOAD,2024-05-27 21:32:04,15.08842199,0.0001414,53.2183,355.9013,88.3127,271.8027,-7.037e-05,-1.408e-05,0.0,0 STARLINK-4796,1 53909U 22119Z   24148.89727703 -.00001408  00000-0 -70370-4 0  9999,2 53909  53.2183 355.9013 0001414  88.3127 271.8027 15.08842199 93573,6917.874,95.437,540.717,538.76,0.0
53909.0,STARLINK-4796,PAYLOAD,2024-05-28 07:04:23,15.08838171,0.0001447,53.2185,354.1152,86.8428,273.2729,0.00018623,2.677e-05,0.0,0 STARLINK-4796,1 53909U 22119Z   24149.29472040  .00002677  00000-0  18623-3 0  9994,2 53909  53.2185 354.1152 0001447  86.8428 273.2729 15.08838171 93630,6917.886,95.438,540.752,538.75,0.0
53909.0,STARLINK-4796,PAYLOAD,2024-05-28 19:47:28,15.08843679,0.0001481,53.2183,351.7365,81.2855,278.8305,0.00017078,2.431e-05,0.0,0 STARLINK-4796,1 53909U 22119Z   24149.82463782  .00002431  00000-0  17078-3 0  9997,2 53909  53.2183 351.7365 0001481  81.2855 278.8305 15.08843679 93717,6917.869,95.437,540.759,538.71,0.0
53909.0,STARLINK-4796,PAYLOAD,2024-05-28 22:58:14,15.08846044,0.0001489,53.2185,351.1405,81.6309,278.4852,0.00019889,2.879e-05,0.0,0 STARLINK-4796,1 53909U 22119Z   24149.95711644  .00002879  00000-0  19889-3 0  9992,2 53909  53.2185 351.1405 0001489  81.6309 278.4852 15.08846044 93312,6917.862,95.437,540.757,538.697,0.0
53909.0,STARLINK-4796,PAYLOAD,2024-05-29 19:38:15,15.08842525,0.0001516,53.2187,347.2721,73.4686,286.6473,9.0647e-05,1.155e-05,0.0,0 STARLINK-4796,1 53909U 22119Z   24150.81823990  .00001155  00000-0  90647-4 0  9995,2 53909  53.2187 347.2721 0001516  73.4686 286.6473 15.08842525 93443,6917.873,95.437,540.786,538.689,0.0
53909.0,STARLINK-4796,PAYLOAD,2024-05-30 13:07:30,15.08840914,0.000162,53.2189,344.0024,104.8054,255.3118,5.7292e-05,6.24e-06,0.0,0 STARLINK-4796,1 53909U 22119Z   24151.54688041  .00000624  00000-0  57292-4 0  9991,2 53909  53.2189 344.0024 0001620 104.8054 255.3118 15.08840914 93977,6917.878,95.437,540.863,538.622,0.0
53909.0,STARLINK-4796,PAYLOAD,2024-05-30 19:29:02,15.08847844,0.0001437,53.2183,342.8156,107.3936,252.7214,3.6801e-05,2.98e-06,0.0,0 STARLINK-4796,1 53909U 22119Z   24151.81183598  .00000298  00000-0  36801-4 0  9998,2 53909  53.2183 342.8156 0001437 107.3936 252.7214 15.08847844 94019,6917.856,95.437,540.716,538.727,0.0
53909.0,STARLINK-4796,PAYLOAD,2024-05-31 12:58:17,15.08840275,0.0001391,53.218,339.5452,93.6591,266.456,6.2357e-05,7.05e-06,0.0,0 STARLINK-4796,1 53909U 22119Z   24152.54048153  .00000705  00000-0  62357-4 0  9994,2 53909  53.2180 339.5452 0001391  93.6591 266.4560 15.08840275 93703,6917.88,95.438,540.707,538.782,0.0
53909.0,STARLINK-4796,PAYLOAD,2024-05-31 19:19:49,15.08849166,0.0001375,53.219,338.3609,99.6791,260.4357,-4.9108e-05,-1.07e-05,0.0,0 STARLINK-4796,1 53909U 22119Z   24152.80543875 -.00001070  00000-0 -49108-4 0  9991,2 53909  53.2190 338.3609 0001375  99.6791 260.4357 15.08849166 94162,6917.852,95.437,540.669,538.766,0.0
53909.0,STARLINK-4796,PAYLOAD,2024-06-01 19:10:37,15.08842586,0.0001279,53.2182,333.8992,85.6741,274.4397,4.0105e-05,3.5e-06,0.0,0 STARLINK-4796,1 53909U 22119Z   24153.79904286  .00000350  00000-0  40105-4 0  9993,2 53909  53.2182 333.8992 0001279  85.6741 274.4397 15.08842586 93898,6917.872,95.437,540.622,538.853,0.0
53909.0,STARLINK-4796,PAYLOAD,2024-06-02 04:42:56,15.08841314,0.0001288,53.2182,332.1143,87.6737,272.4402,7.726e-05,9.42e-06,0.0,0 STARLINK-4796,1 53909U 22119Z   24154.19648297  .00000942  00000-0  77260-4 0  9994,2 53909  53.2182 332.1143 0001288  87.6737 272.4402 15.08841314 94372,6917.876,95.437,540.632,538.85,0.0
53909.0,STARLINK-4796,PAYLOAD,2024-06-02 20:36:47,15.08844811,0.0001263,53.2181,329.1407,84.4562,275.6574,0.0001001,1.306e-05,0.0,0 STARLINK-4796,1 53909U 22119Z   24154.85888046  .00001306  00000-0  10010-3 0  9999,2 53909  53.2181 329.1407 0001263  84.4562 275.6574 15.08844811 94059,6917.866,95.437,540.604,538.857,0.0
53909.0,STARLINK-4796,PAYLOAD,2024-06-03 04:33:43,15.08843215,0.0001249,53.2181,327.6535,82.8965,277.2169,6.2656e-05,7.1e-06,0.0,0 STARLINK-4796,1 53909U 22119Z   24155.19008264  .00000710  00000-0  62656-4 0  9995,2 53909  53.2181 327.6535 0001249  82.8965 277.2169 15.08843215 94524,6917.871,95.437,540.6,538.872,0.0
53909.0,STARLINK-4796,PAYLOAD,2024-06-03 20:27:34,15.0883821,0.0001082,53.2169,324.6782,76.3494,283.7618,9.4589e-06,-1.37e-06,0.0,0 STARLINK-4796,1 53909U 22119Z   24155.85248786 -.00000137  00000-0  94589-5 0  9998,2 53909  53.2169 324.6782 0001082  76.3494 283.7618 15.08838210 94622,6917.886,95.438,540.499,539.002,0.0
53909.0,STARLINK-4796,PAYLOAD,2024-06-04 04:24:30,15.0883693,0.0001153,53.2181,323.193,84.6487,275.4637,1.6514e-05,-2.5e-07,0.0,0 STARLINK-4796,1 53909U 22119Z   24156.18368939 -.00000025  00000-0  16514-4 0  9995,2 53909  53.2181 323.1930 0001153  84.6487 275.4637 15.08836930 94253,6917.89,95.438,540.552,538.957,0.0
53909.0,STARLINK-4796,PAYLOAD,2024-06-04 20:18:21,15.08841506,0.0001717,53.2085,320.2212,82.255,277.8637,8.2342e-05,1.023e-05,0.0,0 STARLINK-4796,1 53909U 22119Z   24156.84608665  .00001023  00000-0  82342-4 0  9991,2 53909  53.2085 320.2212 0001717  82.2550 277.8637 15.08841506 94776,6917.876,95.437,540.929,538.553,0.0
53909.0,STARLINK-4796,PAYLOAD,2024-06-05 04:15:17,15.08839147,0.0002344,53.2142,318.7339,81.9746,278.1512,5.9052e-05,6.52e-06,0.0,0 STARLINK-4796,1 53909U 22119Z   24157.17729130  .00000652  00000-0  59052-4 0  9998,2 53909  53.2142 318.7339 0002344  81.9746 278.1512 15.08839147 94822,6917.883,95.438,541.37,538.126,0.0
53909.0,STARLINK-4796,PAYLOAD,2024-06-05 20:09:08,15.08838943,0.0001268,53.2114,315.7571,95.9871,264.1265,0.0001213,1.643e-05,0.0,0 STARLINK-4796,1 53909U 22119Z   24157.83968610  .00001643  00000-0  12130-3 0  9995,2 53909  53.2114 315.7571 0001268  95.9871 264.1265 15.08838943 94502,6917.884,95.438,540.626,538.871,0.0
53909.0,STARLINK-4796,PAYLOAD,2024-06-06 16:49:09,15.08848513,0.0001798,53.2132,311.8914,85.8656,274.2542,0.00011292,1.51e-05,0.0,0 STARLINK-4796,1 53909U 22119Z   24158.70079983  .00001510  00000-0  11292-3 0  9999,2 53909  53.2132 311.8914 0001798  85.8656 274.2542 15.08848513 94635,6917.854,95.437,540.963,538.476,0.0
53909.0,STARLINK-4796,PAYLOAD,2024-06-07 16:39:56,15.08840518,3.08e-05,53.2202,307.4304,66.4514,293.6511,8.8813e-05,1.126e-05,0.0,0 STARLINK-4796,1 53909U 22119Z   24159.69440570  .00001126  00000-0  88813-4 0  9999,2 53909  53.2202 307.4304 0000308  66.4514 293.6511 15.08840518 94785,6917.879,95.438,539.957,539.531,0.0
